{"fetched_at":"2026-03-29T16:36:15Z","count":15609,"tles":[{"name":"STARLINK-35809","line1":"1 66373U 25254AB  26087.85791390  .00017067  00000+0  58696-3 0  9995","line2":"2 66373  53.1586 141.0131 0001360  87.8521 272.2635 15.30203505 21944","category":"Starlink"}]}