{
  "norad_id": 66373,
  "name": "STARLINK-35809",
  "history": [
    {
      "epoch": "2026-03-28T20:35:23.760960Z",
      "apogee_km": 476.13727539998854,
      "perigee_km": 474.2719328821722,
      "latitude_deg": -4.287002409840652e-05,
      "longitude_deg": 5.8917296226906055,
      "height_km": 476.067457580444,
      "semi_major_axis_km": 6853.34160414108,
      "eccentricity": 0.00013609,
      "inclination_deg": 53.1586,
      "raan_deg": 141.0131,
      "arg_perigee_deg": 87.8521,
      "mean_anomaly_deg": 272.2635,
      "mean_motion_rev_day": 15.30203505
    }
  ]
}